[{"OBJECT_NAME":"STARLINK-30859","OBJECT_ID":"2023-177W","EPOCH":"2026-03-09T22:00:01.999584","MEAN_MOTION":15.26762615,"ECCENTRICITY":0.00017814,"INCLINATION":43.0018,"RA_OF_ASC_NODE":349.5654,"ARG_OF_PERICENTER":272.5409,"MEAN_ANOMALY":276.7587,"EPHEMERIS_TYPE":0,"CLASSIFICATION_TYPE":"U","NORAD_CAT_ID":58371,"ELEMENT_SET_NO":999,"REV_AT_EPOCH":553,"BSTAR":-0.0012994336,"MEAN_MOTION_DOT":-0.00034976,"MEAN_MOTION_DDOT":0},{"OBJECT_NAME":"CZ-6A DEB","OBJECT_ID":"2024-140AB","EPOCH":"2026-03-09T12:39:40.872096","MEAN_MOTION":14.79496195,"ECCENTRICITY":0.02124268,"INCLINATION":89.014,"RA_OF_ASC_NODE":280.9531,"ARG_OF_PERICENTER":168.3647,"MEAN_ANOMALY":192.2602,"EPHEMERIS_TYPE":0,"CLASSIFICATION_TYPE":"U","NORAD_CAT_ID":60626,"ELEMENT_SET_NO":999,"REV_AT_EPOCH":8539,"BSTAR":0.00037700721,"MEAN_MOTION_DOT":4.17e-5,"MEAN_MOTION_DDOT":0}]
